*******************************************************************************
JPL/HORIZONS             2745 San Martin (1976 SR10)       2023-Sep-04 11:19:41
Rec #:    2745 (+COV) Soln.date: 2023-Aug-23_01:36:24   # obs: 3226 (1976-2023)
 
IAU76/J2000 helio. ecliptic osc. elements (au, days, deg., period=Julian yrs):
 
  EPOCH=  2458092.5 ! 2017-Dec-05.00 (TDB)         Residual RMS= .21708
   EC= .1903565482699588   QR= 1.852638202162098   TP= 2458440.2947121817
   OM= 137.7741483502365   W=  303.7905675035517   IN= 22.39817405018558
   A= 2.288214890398226    MA= 260.9665662278125   ADIST= 2.723791578634355
   PER= 3.46141            N= .284746807           ANGMOM= .025545551
   DAN= 1.99418            DDN= 2.46642            L= 83.67149569999999
   B= -18.4618996          MOID= .93718398         TP= 2018-Nov-17.7947121817
 
Asteroid physical parameters (km, seconds, rotational period in hours):
   GM= n.a.                RAD= 2.6245             ROTPER= 2.80289
   H= 13.42                G= .150                 B-V= n.a.
                           ALBEDO= .336            STYP= n.a.

ASTEROID comments: 
1: soln ref.= JPL#47, OCC=0
2: source=ORB
*******************************************************************************


*******************************************************************************
Ephemeris / API_USER Mon Sep  4 11:19:41 2023 Pasadena, USA      / Horizons
*******************************************************************************
Target body name: 2745 San Martin (1976 SR10)     {source: JPL#47}
Center body name: Solar System Barycenter (0)     {source: DE441}
Center-site name: BODY CENTER
*******************************************************************************
Start time      : A.D. 2023-Aug-12 00:00:00.0000 TDB
Stop  time      : A.D. 2023-Aug-13 00:00:00.0000 TDB
Step-size       : 2880 minutes
*******************************************************************************
Center geodetic : 0.0, 0.0, 0.0                   {E-lon(deg),Lat(deg),Alt(km)}
Center cylindric: 0.0, 0.0, 0.0                   {E-lon(deg),Dxy(km),Dz(km)}
Center radii    : (undefined)
Small perturbers: Yes                             {source: SB441-N16}
Output units    : KM-S
Calendar mode   : Mixed Julian/Gregorian
Output type     : GEOMETRIC cartesian states
Output format   : 2 (position and velocity)
Reference frame : Ecliptic of J2000.0
*******************************************************************************
Initial IAU76/J2000 heliocentric ecliptic osculating elements (au, days, deg.):
  EPOCH=  2458092.5 ! 2017-Dec-05.00 (TDB)         Residual RMS= .21708        
   EC= .1903565482699588   QR= 1.852638202162098   TP= 2458440.2947121817      
   OM= 137.7741483502365   W=  303.7905675035517   IN= 22.39817405018558       
  Equivalent ICRF heliocentric cartesian coordinates (au, au/d):
   X= 1.912377727714048E+00  Y=-1.349035582084337E+00  Z=-6.627976660196225E-01
  VX= 4.395502807095964E-03 VY= 9.729712790716410E-03 VZ=-6.885150623838355E-05
Asteroid physical parameters (km, seconds, rotational period in hours):        
   GM= n.a.                RAD= 2.6245             ROTPER= 2.80289             
   H= 13.42                G= .150                 B-V= n.a.                   
                           ALBEDO= .336            STYP= n.a.                  
*******************************************************************************
JDTDB
   X     Y     Z
   VX    VY    VZ
*******************************************************************************
$$SOE
2460168.500000000 = A.D. 2023-Aug-12 00:00:00.0000 TDB 
 X =-2.471523755785662E+08 Y =-2.653821765634379E+08 Z = 1.490643358946784E+08
 VX= 1.108516972340347E+01 VY=-1.296121704212183E+01 VZ= 8.783218068680623E-01
$$EOE
*******************************************************************************
 
TIME

  Barycentric Dynamical Time ("TDB" or T_eph) output was requested. This
continuous coordinate time is equivalent to the relativistic proper time
of a clock at rest in a reference frame co-moving with the solar system
barycenter but outside the system's gravity well. It is the independent
variable in the solar system relativistic equations of motion.

  TDB runs at a uniform rate of one SI second per second and is independent
of irregularities in Earth's rotation.
 
CALENDAR SYSTEM

  Mixed calendar mode was active such that calendar dates after AD 1582-Oct-15
(if any) are in the modern Gregorian system. Dates prior to 1582-Oct-5 (if any)
are in the Julian calendar system, which is automatically extended for dates
prior to its adoption on 45-Jan-1 BC.  The Julian calendar is useful for
matching historical dates. The Gregorian calendar more accurately corresponds
to the Earth's orbital motion and seasons. A "Gregorian-only" calendar mode is
available if such physical events are the primary interest.

REFERENCE FRAME AND COORDINATES

  Ecliptic at the standard reference epoch

    Reference epoch: J2000.0
    X-Y plane: adopted Earth orbital plane at the reference epoch
               Note: IAU76 obliquity of 84381.448 arcseconds wrt ICRF X-Y plane
    X-axis   : ICRF
    Z-axis   : perpendicular to the X-Y plane in the directional (+ or -) sense
               of Earth's north pole at the reference epoch.

  Symbol meaning:

    JDTDB    Julian Day Number, Barycentric Dynamical Time
      X      X-component of position vector (km)
      Y      Y-component of position vector (km)
      Z      Z-component of position vector (km)
      VX     X-component of velocity vector (km/sec)                           
      VY     Y-component of velocity vector (km/sec)                           
      VZ     Z-component of velocity vector (km/sec)                           

ABERRATIONS AND CORRECTIONS

 Geometric state vectors have NO corrections or aberrations applied.

Computations by ...

    Solar System Dynamics Group, Horizons On-Line Ephemeris System
    4800 Oak Grove Drive, Jet Propulsion Laboratory
    Pasadena, CA  91109   USA

    General site: https://ssd.jpl.nasa.gov/
    Mailing list: https://ssd.jpl.nasa.gov/email_list.html
    System news : https://ssd.jpl.nasa.gov/horizons/news.html
    User Guide  : https://ssd.jpl.nasa.gov/horizons/manual.html
    Connect     : browser        https://ssd.jpl.nasa.gov/horizons/app.html#/x
                  API            https://ssd-api.jpl.nasa.gov/doc/horizons.html
                  command-line   telnet ssd.jpl.nasa.gov 6775
                  e-mail/batch   https://ssd.jpl.nasa.gov/ftp/ssd/hrzn_batch.txt
                  scripts        https://ssd.jpl.nasa.gov/ftp/ssd/SCRIPTS
    Author      : Jon.D.Giorgini@jpl.nasa.gov
*******************************************************************************
